NORAD_CAT_ID,OBJECT_NAME,OBJECT_TYPE,EPOCH,MEAN_MOTION,ECCENTRICITY,INCLINATION,RA_OF_ASC_NODE,ARG_OF_PERICENTER,MEAN_ANOMALY,BSTAR,MEAN_MOTION_DOT,MEAN_MOTION_DDOT,TLE_LINE0,TLE_LINE1,TLE_LINE2,SEMIMAJOR_AXIS,PERIOD,APOGEE,PERIGEE,DECAYED
53135.0,STARLINK-4023,PAYLOAD,2023-10-26 14:04:49,15.08847406,0.0001319,53.215,97.7172,81.1262,278.988,0.00022054,3.224e-05,0.0,0 STARLINK-4023,1 53135U 22083D   23299.58668579  .00003224  00000-0  22054-3 0  9998,2 53135  53.2150  97.7172 0001319  81.1262 278.9880 15.08847406 71601,6917.858,95.437,540.635,538.81,0.0
53135.0,STARLINK-4023,PAYLOAD,2023-10-26 17:15:35,15.08851332,0.0001333,53.2151,97.1222,82.7472,277.3671,0.00031699,4.762e-05,0.0,0 STARLINK-4023,1 53135U 22083D   23299.71916418  .00004762  00000-0  31699-3 0  9994,2 53135  53.2151  97.1222 0001333  82.7472 277.3671 15.08851332 71264,6917.846,95.437,540.633,538.789,0.0
53135.0,STARLINK-4023,PAYLOAD,2023-10-26 20:26:21,15.08855776,0.0001325,53.2152,96.5275,82.0125,278.1017,0.000434,6.629e-05,0.0,0 STARLINK-4023,1 53135U 22083D   23299.85164250  .00006629  00000-0  43400-3 0  9995,2 53135  53.2152  96.5275 0001325  82.0125 278.1017 15.08855776 71646,6917.832,95.437,540.614,538.781,0.0
53135.0,STARLINK-4023,PAYLOAD,2023-10-27 10:44:50,15.08850299,0.0001358,53.2153,93.8509,81.0841,279.0305,0.00035909,5.433e-05,0.0,0 STARLINK-4023,1 53135U 22083D   23300.44780486  .00005433  00000-0  35909-3 0  9995,2 53135  53.2153  93.8509 0001358  81.0841 279.0305 15.08850299 71372,6917.849,95.437,540.653,538.774,0.0
53135.0,STARLINK-4023,PAYLOAD,2023-10-27 20:17:09,15.08848095,0.0001437,53.2157,92.0666,87.6474,272.4682,0.00025046,3.701e-05,0.0,0 STARLINK-4023,1 53135U 22083D   23300.84524318  .00003701  00000-0  25046-3 0  9996,2 53135  53.2157  92.0666 0001437  87.6474 272.4682 15.08848095 71795,6917.856,95.437,540.715,538.727,0.0
53135.0,STARLINK-4023,PAYLOAD,2023-10-28 10:35:37,15.08832037,0.0001265,53.2157,89.3911,88.302,271.8117,-7.0636e-05,-1.412e-05,0.0,0 STARLINK-4023,1 53135U 22083D   23301.44141109 -.00001412  00000-0 -70636-4 0  9991,2 53135  53.2157  89.3911 0001265  88.3020 271.8117 15.08832037 71527,6917.905,95.438,540.645,538.895,0.0
53135.0,STARLINK-4023,PAYLOAD,2023-10-28 13:46:24,15.08831459,0.0001254,53.2159,88.797,87.8669,272.2467,-6.6449e-05,-1.345e-05,0.0,0 STARLINK-4023,1 53135U 22083D   23301.57389186 -.00001345  00000-0 -66449-4 0  9996,2 53135  53.2159  88.7970 0001254  87.8669 272.2467 15.08831459 71900,6917.906,95.438,540.639,538.904,0.0
53135.0,STARLINK-4023,PAYLOAD,2023-10-28 16:57:10,15.08836635,0.0001335,53.216,88.2016,92.5979,267.5166,1.2134e-05,-9.5e-07,0.0,0 STARLINK-4023,1 53135U 22083D   23301.70637047 -.00000095  00000-0  12134-4 0  9995,2 53135  53.2160  88.2016 0001335  92.5979 267.5166 15.08836635 71921,6917.891,95.438,540.679,538.832,0.0
53135.0,STARLINK-4023,PAYLOAD,2023-10-29 02:29:29,15.08841629,0.0001336,53.2161,86.4167,91.7139,268.4006,8.3171e-05,1.036e-05,0.0,0 STARLINK-4023,1 53135U 22083D   23302.10380855  .00001036  00000-0  83171-4 0  9996,2 53135  53.2161  86.4167 0001336  91.7139 268.4006 15.08841629 71628,6917.875,95.437,540.665,538.816,0.0
53135.0,STARLINK-4023,PAYLOAD,2023-10-29 13:37:10,15.08847708,0.0001371,53.2165,84.3362,97.4058,262.709,0.00028703,4.284e-05,0.0,0 STARLINK-4023,1 53135U 22083D   23302.56748767  .00004284  00000-0  28703-3 0  9993,2 53135  53.2165  84.3362 0001371  97.4058 262.7090 15.08847708 72050,6917.857,95.437,540.67,538.773,0.0
53135.0,STARLINK-4023,PAYLOAD,2023-10-29 16:47:57,15.08854931,0.0001374,53.2164,83.742,100.8182,259.2965,0.00054258,8.361e-05,0.0,0 STARLINK-4023,1 53135U 22083D   23302.69996626  .00008361  00000-0  54258-3 0  9990,2 53135  53.2164  83.7420 0001374 100.8182 259.2965 15.08854931 72077,6917.835,95.437,540.65,538.749,0.0
53135.0,STARLINK-4023,PAYLOAD,2023-10-30 02:20:15,15.08853213,0.0001253,53.2156,81.9558,78.2671,281.8462,0.0004068,6.195e-05,0.0,0 STARLINK-4023,1 53135U 22083D   23303.09740537  .00006195  00000-0  40680-3 0  9990,2 53135  53.2156  81.9558 0001253  78.2671 281.8462 15.08853213 71778,6917.84,95.437,540.572,538.838,0.0
53135.0,STARLINK-4023,PAYLOAD,2023-10-30 18:14:08,15.08827913,0.0002574,53.2168,78.9778,76.7743,283.3536,-6.2495e-05,-1.283e-05,0.0,0 STARLINK-4023,1 53135U 22083D   23303.75981779 -.00001283  00000-0 -62495-4 0  9992,2 53135  53.2168  78.9778 0002574  76.7743 283.3536 15.08827913 71879,6917.917,95.438,541.563,538.002,0.0
53135.0,STARLINK-4023,PAYLOAD,2023-10-31 14:54:08,15.0883904,0.0001463,53.2157,75.1171,79.3485,280.7672,0.00023059,3.384e-05,0.0,0 STARLINK-4023,1 53135U 22083D   23304.62093682  .00003384  00000-0  23059-3 0  9990,2 53135  53.2157  75.1171 0001463  79.3485 280.7672 15.08839040 72362,6917.883,95.438,540.76,538.736,0.0
53135.0,STARLINK-4023,PAYLOAD,2023-10-31 16:29:31,15.08848209,0.0001193,53.2167,74.8179,96.4726,263.6402,0.00042547,6.491e-05,0.0,0 STARLINK-4023,1 53135U 22083D   23304.68717145  .00006491  00000-0  42547-3 0  9998,2 53135  53.2167  74.8179 0001193  96.4726 263.6402 15.08848209 72015,6917.855,95.437,540.546,538.895,0.0
53135.0,STARLINK-4023,PAYLOAD,2023-11-01 13:09:32,15.08838127,0.000135,53.2157,70.9545,87.5167,272.598,0.00016133,2.28e-05,0.0,0 STARLINK-4023,1 53135U 22083D   23305.54829753  .00002280  00000-0  16133-3 0  9997,2 53135  53.2157  70.9545 0001350  87.5167 272.5980 15.08838127 72145,6917.886,95.438,540.685,538.817,0.0
53135.0,STARLINK-4023,PAYLOAD,2023-11-01 14:44:56,15.08836834,0.0001163,53.2158,70.659,83.9818,276.1307,0.00013434,1.851e-05,0.0,0 STARLINK-4023,1 53135U 22083D   23305.61453776  .00001851  00000-0  13434-3 0  9997,2 53135  53.2158  70.6590 0001163  83.9818 276.1307 15.08836834 72515,6917.89,95.438,540.56,538.951,0.0
53135.0,STARLINK-4023,PAYLOAD,2023-11-02 14:35:42,15.08848143,0.0001349,53.2162,66.1975,92.3249,267.7897,0.0002307,3.386e-05,0.0,0 STARLINK-4023,1 53135U 22083D   23306.60813474  .00003386  00000-0  23070-3 0  9994,2 53135  53.2162  66.1975 0001349  92.3249 267.7897 15.08848143 72667,6917.855,95.437,540.654,538.787,0.0
53135.0,STARLINK-4023,PAYLOAD,2023-11-03 01:43:24,15.08842115,0.00012,53.2159,64.1166,96.1555,263.9574,9.8545e-05,1.281e-05,0.0,0 STARLINK-4023,1 53135U 22083D   23307.07181687  .00001281  00000-0  98545-4 0  9992,2 53135  53.2159  64.1166 0001200  96.1555 263.9574 15.08842115 72372,6917.874,95.437,540.569,538.909,0.0
53135.0,STARLINK-4023,PAYLOAD,2023-11-03 14:26:30,15.08841668,0.0001522,53.2163,61.7369,85.7643,274.3523,0.00018428,2.646e-05,0.0,0 STARLINK-4023,1 53135U 22083D   23307.60173909  .00002646  00000-0  18428-3 0  9996,2 53135  53.2163  61.7369 0001522  85.7643 274.3523 15.08841668 72815,6917.875,95.437,540.793,538.687,0.0
53135.0,STARLINK-4023,PAYLOAD,2023-11-03 17:37:16,15.08845335,0.0001532,53.2169,61.1413,84.625,275.4916,0.00019765,2.859e-05,0.0,0 STARLINK-4023,1 53135U 22083D   23307.73421696  .00002859  00000-0  19765-3 0  9990,2 53135  53.2169  61.1413 0001532  84.6250 275.4916 15.08845335 72833,6917.864,95.437,540.789,538.669,0.0
53135.0,STARLINK-4023,PAYLOAD,2023-11-04 11:06:31,15.08841906,0.0001577,53.2165,57.8672,88.5327,271.5845,0.00010851,1.439e-05,0.0,0 STARLINK-4023,1 53135U 22083D   23308.46286045  .00001439  00000-0  10851-3 0  9998,2 53135  53.2165  57.8672 0001577  88.5327 271.5845 15.08841906 72585,6917.875,95.437,540.831,538.649,0.0
53135.0,STARLINK-4023,PAYLOAD,2023-11-04 14:17:17,15.08847994,0.000137,53.2169,57.2756,84.448,275.6668,0.00015716,2.215e-05,0.0,0 STARLINK-4023,1 53135U 22083D   23308.59533654  .00002215  00000-0  15716-3 0  9991,2 53135  53.2169  57.2756 0001370  84.4480 275.6668 15.08847994 72965,6917.856,95.437,540.669,538.773,0.0
53135.0,STARLINK-4023,PAYLOAD,2023-11-05 14:08:03,15.08861392,0.0001384,53.2171,52.8154,80.6888,279.4261,0.00041684,6.356e-05,0.0,0 STARLINK-4023,1 53135U 22083D   23309.58892953  .00006356  00000-0  41684-3 0  9994,2 53135  53.2171  52.8154 0001384  80.6888 279.4261 15.08861392 73113,6917.815,95.436,540.637,538.723,0.0
53135.0,STARLINK-4023,PAYLOAD,2023-11-05 23:40:22,15.08860039,0.0001547,53.2176,51.0318,81.8433,278.2734,0.00036096,5.464e-05,0.0,0 STARLINK-4023,1 53135U 22083D   23309.98636943  .00005464  00000-0  36096-3 0  9993,2 53135  53.2176  51.0318 0001547  81.8433 278.2734 15.08860039 72816,6917.819,95.436,540.754,538.614,0.0
53135.0,STARLINK-4023,PAYLOAD,2023-11-06 13:58:51,15.08811683,0.0001532,53.2172,48.3537,72.5671,287.5489,-0.00073766,-0.00012,0.0,0 STARLINK-4023,1 53135U 22083D   23310.58253898 -.00012000  00000-0 -73766-3 0  9996,2 53135  53.2172  48.3537 0001532  72.5671 287.5489 15.08811683 73260,6917.967,95.439,540.892,538.772,0.0
53135.0,STARLINK-4023,PAYLOAD,2023-11-06 23:31:11,15.08793799,0.0001552,53.2185,46.572,82.6886,277.4283,-0.00084646,-0.00013717,0.0,0 STARLINK-4023,1 53135U 22083D   23310.97999599 -.00013717  00000-0 -84646-3 0  9999,2 53135  53.2185  46.5720 0001552  82.6886 277.4283 15.08793799 72963,6918.022,95.44,540.96,538.813,0.0
53135.0,STARLINK-4023,PAYLOAD,2023-11-07 10:38:54,15.08801246,0.0001138,53.2176,44.4888,68.1933,291.9181,-0.00048095,-7.926e-05,0.0,0 STARLINK-4023,1 53135U 22083D   23311.44368266 -.00007926  00000-0 -48095-3 0  9996,2 53135  53.2176  44.4888 0001138  68.1933 291.9181 15.08801246 73031,6917.999,95.44,540.651,539.077,0.0
53135.0,STARLINK-4023,PAYLOAD,2023-11-07 13:49:40,15.08801441,0.0001751,53.2183,43.8946,78.9682,281.1507,-0.00031856,-5.349e-05,0.0,0 STARLINK-4023,1 53135U 22083D   23311.57616594 -.00005349  00000-0 -31856-3 0  9994,2 53135  53.2183  43.8946 0001751  78.9682 281.1507 15.08801441 73410,6917.998,95.44,541.075,538.652,0.0
53135.0,STARLINK-4023,PAYLOAD,2023-11-07 23:21:59,15.08818506,0.0001416,53.2174,42.1106,83.4812,276.6342,0.00033701,5.077e-05,0.0,0 STARLINK-4023,1 53135U 22083D   23311.97360773  .00005077  00000-0  33701-3 0  9990,2 53135  53.2174  42.1106 0001416  83.4812 276.6342 15.08818506 73117,6917.946,95.439,540.791,538.832,0.0
